#aV2020  7 26  0  0  0.00000000     288 DD+AD WGS84 FIT  NGA
## 2116      0.00000000   300.00000000 59056 0.0000000000000
+   32     1  2  3  4  5  6  7  8  9 10 11 12 13 14 15 16 17
+         18 19 20 21 22 23 24 25 26 27 28 29 30 31 32  0  0
+          0  0  0  0  0  0  0  0  0  0  0  0  0  0  0  0  0
+          0  0  0  0  0  0  0  0  0  0  0  0  0  0  0  0  0
+          0  0  0  0  0  0  0  0  0  0  0  0  0  0  0  0  0
++         2  2  2  2  2  2  2  2  2  2  2  2  2  2  2  2  2
++         2  2  2  2  2  2  2  2  2  2  2  2  2  2  2  0  0
++         0  0  0  0  0  0  0  0  0  0  0  0  0  0  0  0  0
++         0  0  0  0  0  0  0  0  0  0  0  0  0  0  0  0  0
++         0  0  0  0  0  0  0  0  0  0  0  0  0  0  0  0  0
%c cc cc ccc ccc cccc cccc cccc cccc ccccc ccccc ccccc ccccc
%c cc cc ccc ccc cccc cccc cccc cccc ccccc ccccc ccccc ccccc
%f  0.0000000  0.000000000  0.00000000000  0.000000000000000
%f  0.0000000  0.000000000  0.00000000000  0.000000000000000
%i    0    0    0    0      0      0      0      0         0
%i    0    0    0    0      0      0      0      0         0
/*      NGA, ST. LOUIS,MO.                                  
/*   EPHEMERIS COMPUTED FROM 2 DAYS OF DATA                 
/*   EPOCHA v5 SMOOTHER                                     
/*   G1762 IERS2010 SATAF SATAPC                            
*  2020  7 26  1 15  0.00000000
P  1 -13577.411040  11477.598577  19385.620841     28.910387                    
V  1     25.819952 -25208.916572  15088.484701      0.032078                    
P  2  13496.682265  12104.071178 -18788.467235   -492.724980                    
V  2   -820.316698  25241.711892  15122.717967     -0.055974                    
P  3 -23444.988671  12360.743718   -188.649338   -250.851875                    
V  3  -1395.870283  -2347.194378  31950.022482     -0.113899                    
P  4 -16540.935349   5661.152362 -19992.987191   -116.891806                    
V  4 -20363.147585 -15231.260825  12493.476955     -0.045437                    
P  5  20531.422500   2246.982939 -16953.208636    -17.428927                    
V  5 -17605.481521  11928.907788 -19716.627982     -0.008057                    
P  6   6715.448104  22955.546659 -11453.355448   -307.825361                    
V  6  -2538.392155  14512.127875  27515.547039     -0.047824                    
P  7  -5834.992975  24770.717965  -6328.381477   -335.624336                    
V  7  -2947.390935  -8740.929172 -30479.515435     -0.086074                    
P  8 -23026.578249  -3694.217260  12960.193902    -42.227907                    
V  8 -12937.254151 -10132.350787 -25641.273409     -0.013436                    
P  9  -5291.291333  14706.299925 -21524.044198   -259.795017                    
V  9 -23415.509745 -13927.887562  -3783.969657     -0.063107                    
P 10   -221.231988 -16277.946995  21025.949694   -409.893663                    
V 10  23881.369682 -11589.013515  -8993.811185     -0.105348                    
P 11 -16348.101654   1976.372963  20310.188319   -210.846801                    
V 11 -10322.772996 -25132.434498  -6062.225600      0.106463                    
P 12  24280.167703 -10557.263378     10.076082     88.984719                    
V 12    690.040680   2328.469111  32228.098225     -0.048945                    
P 13  22442.561120  12410.866125   6993.523088     29.986390                    
V 13   5385.363379   7609.293060 -30168.568053      0.033679                    
P 14 -17145.639453 -19235.593371   7178.857624      4.145915                    
V 14   8353.789996   3216.119453  29874.736392      0.029186                    
P 15  23327.109895    945.415808  12683.607676   -215.033407                    
V 15  13557.132579   9935.510085 -24660.495557      0.025913                    
P 16 -22143.562752  -1858.224796 -15095.167020   -187.388105                    
V 16  16664.672837  -8298.485933 -23337.006840     -0.048228                    
P 17  10629.174903  19720.116891  14725.715086    301.441505                    
V 17 -15357.821445  -9310.464031  24211.216576      0.057102                    
P 18   6094.842544 -25042.745325  -6358.047969    255.139125                    
V 18   2073.782540   8217.590622 -30472.358401      0.089909                    
P 19  16653.906477  19315.364649   7207.260965   -127.112762                    
V 19  -8737.770062  -4303.800546  30414.230719      0.050734                    
P 20  10565.495015 -19926.641228  13763.163867    527.208553                    
V 20  16209.423124  -7851.308015 -23905.486430     -0.000894                    
P 21  -8815.593567 -22760.427801  11610.909727     28.074769                    
V 21   1822.390030 -13557.609437 -26661.634000      0.045058                    
P 22 -23932.293039   8218.245912   8028.316677   -769.361865                    
V 22   6523.199803  -8374.730878  28897.803761      0.028802                    
P 23   9902.083349 -18467.512361  16289.669221     17.190148                    
V 23  19052.874053  -8401.109220 -21069.037012      0.148576                    
P 24  14512.234000  -9243.006243  19940.684539    -16.173752                    
V 24   1968.500230  25921.368713  10847.150397     -0.005655                    
P 25  18210.572601 -16822.835099  -9402.037383     27.530767                    
V 25  11546.429636  -3111.500780  28905.402110      0.044530                    
P 26 -11875.162116 -10836.918860 -21203.297267    249.912712                    
V 26  23117.528425 -13703.411865  -5728.379350      0.067439                    
P 27 -23457.258748 -12438.855178   3050.313391   -355.093310                    
V 27  -2322.346770  -3825.555054 -31600.551396     -0.094865                    
P 28    441.940655  15815.712926  21937.240598    696.013125                    
V 28 -24578.542051   9679.798156  -6517.569538     -0.036477                    
P 29   9911.006908 -10921.974803 -22136.316751   -158.452158                    
V 29  22412.302484  16654.559890   1781.743307     -0.083950                    
P 30    917.545257  26139.765542   3928.753631   -269.424203                    
V 30  -4032.355178   4687.297078 -30844.583772     -0.075926                    
P 31  -7703.591781 -21603.693259 -13031.572082    -57.992016                    
V 31   3811.024733 -16440.557925  25533.472983     -0.024563                    
P 32 -12531.692223 -19182.514855  13647.447620    322.860574                    
V 32  15677.750239   7248.589282  24594.225988      0.059357                    
EOF
